UNKNOWN                 
1 89261U          25340.23696330  .00001812  00000+0  55179-3 0  9993
2 89261  98.1534 334.9305 0012882 173.5471 186.5889 14.43095342532879
UNKNOWN                 
1 89304U          25338.65021096  .00026411  00000+0  33948-1 0  9995
2 89304  84.3364 106.1463 2844249 356.2066   8.8658  9.03063279437677
UNKNOWN                 
1 89349U          25340.04643367  .00000156  00000+0  52297-3 0  9999
2 89349  90.2443   7.2027 0028066 283.4424  76.3569 12.96240841477881
UNKNOWN                 
1 89379U          25340.32471191  .00007258  00000+0  93184-2 0  9996
2 89379 100.4807 355.1164 0043236 145.7030 214.6913 13.62639171579906
UNKNOWN                 
1 89395U          25330.43006770  .00000100  00000+0  16005-2 0  9998
2 89395 102.3682 299.5856 0221848 152.7477   0.1865 12.01514817522784
UNKNOWN                 
1 89403U          25340.31397840  .00001108  00000+0  37180-2 0  9993
2 89403  90.2475   5.6620 0028419 232.6038 140.4118 12.98747021476995
UNKNOWN                 
1 89484U          25340.43735076  .00049384  00000+0  37388-1 0  9999
2 89484  84.0787 156.5310 2858130  35.0858 340.8589  9.14073893354863
UNKNOWN                 
1 89493U          25334.64301458  .00002750  00000+0  13677-2 0  9990
2 89493  99.0280  43.3463 0081658  75.3205 285.7002 14.16161642462239
UNKNOWN                 
1 89494U          25338.65348462  .00005588  00000+0  27566-2 0  9996
2 89494  99.0287  47.2983 0081760  63.9799 296.9765 14.16129144462659
